METHANESAT              
1 59101U 24043D   26102.93178419  .00001109  00000+0  99388-4 0  9993
2 59101  97.8346 233.7046 0009268 223.0626 136.9872 14.97827644114886
GOSAT-GW (IBUKI GW)     
1 64694U 25141A   26103.28143541  .00001023  00000+0  18867-3 0  9990
2 64694  98.0537  41.6659 0001421  84.1877 275.9489 14.67558052 42325
GHGSAT-C1               
1 46278U 20061G   26103.24106461  .00021385  00000+0  20208-3 0  9995
2 46278  97.2119 186.4530 0000686 200.9995 159.1238 15.67029683313293
GHGSAT-C12              
1 64529U 25135B   26103.27524135  .00002319  00000+0  11126-3 0  9991
2 64529  97.4659 218.7075 0005996  52.7314 307.4467 15.19868521 44969
GHGSAT-C13              
1 64548U 25135W   26103.24390582  .00002109  00000+0  99574-4 0  9997
2 64548  97.4686 219.1485 0001469  46.5099 313.6258 15.20536731 44988
GHGSAT-C2               
1 47509U 21006DA  26103.06223153  .00004263  00000+0  11977-3 0  9990
2 47509  97.2228 151.4481 0006409  56.0113 304.1740 15.37040244289846
GHGSAT-C3               
1 52737U 22057F   26103.33124837  .00004621  00000+0  14509-3 0  9997
2 52737  97.6492 246.6351 0005802   5.4222 354.7081 15.33537150215593
GHGSAT-C4               
1 52746U 22057Q   26103.28591078  .00004805  00000+0  15084-3 0  9999
2 52746  97.6418 245.4854 0005681 349.4224  10.6897 15.33522034215592
GHGSAT-C5               
1 52744U 22057N   26103.23872722  .00004864  00000+0  15268-3 0  9999
2 52744  97.6584 248.0381 0006537 359.3291   0.7941 15.33512892215583
GHGSAT-C6               
1 56204U 23054AC  26103.26318655  .00009499  00000+0  16460-3 0  9999
2 56204  97.3088  12.0864 0004157 277.6788  82.3992 15.51109271168388
GHGSAT-C7               
1 56209U 23054AH  26103.28125537  .00007447  00000+0  14148-3 0  9993
2 56209  97.3053  10.8824 0005642 271.6336  88.4268 15.48555081168349
GHGSAT-C8               
1 56186U 23054J   26103.23401509  .00009624  00000+0  16663-3 0  9991
2 56186  97.3040  11.4263 0003017 329.1113  30.9961 15.51131295168364
SENTINEL-5P             
1 42969U 17064A   26103.28401206  .00000023  00000+0  31837-4 0  9993
2 42969  98.7925  45.8818 0001254  85.6643 274.4677 14.19507752440354
ENMAP                   
1 52159U 22033C   26103.24326362 -.00000076  00000+0 -38073-5 0  9992
2 52159  97.9790 186.4145 0001675  99.9668 260.1730 14.75008761217086
PRISMA                  
1 44072U 19015A   26103.26191778  .00000219  00000+0  32923-4 0  9990
2 44072  97.8665 178.9929 0001455  78.7827 281.3550 14.83646804382426
SENTINEL-2A             
1 40697U 15028A   26103.31962760  .00000149  00000+0  73621-4 0  9994
2 40697  98.5635 179.1037 0001334  90.3570 269.7766 14.30820435564454
SENTINEL-2B             
1 42063U 17013A   26103.31238177  .00000097  00000+0  53636-4 0  9993
2 42063  98.5661 179.0095 0001241  94.0245 266.1080 14.30820791475368
SENTINEL-2C             
1 60989U 24157A   26103.13756218  .00000026  00000+0  26714-4 0  9997
2 60989  98.5643 178.8524 0001313 109.4001 250.7324 14.30813009 83684
LANDSAT 8               
1 39084U 13008A   26103.26963233  .00000218  00000+0  58296-4 0  9996
2 39084  98.1864 174.4169 0001172  93.4590 266.6743 14.57116978688448
LANDSAT 9               
1 49260U 21088A   26103.23544126  .00000210  00000+0  56599-4 0  9999
2 49260  98.1886 174.4532 0001117  99.5555 260.5770 14.57112635241545
TANAGER-1               
1 60507U 24149AR  26103.24424290  .00009967  00000+0  21997-3 0  9998
2 60507  97.3637 197.0870 0007535 170.0824 190.0575 15.44058871 93012
